{
  "type": "FeatureCollection",
  "features": [
    {
      "type": "Feature",
      "properties": {
        "norad_id": 66567,
        "name": "STARLINK-35825",
        "group": "last-30-days",
        "lat": -1.6657644665086453,
        "lon": -102.34573335418555,
        "alt_km": 401.1184799470093,
        "timestamp": "2025-12-20T11:30:27.103431+00:00",
        "meta_object_name": "STARLINK-35825",
        "meta_object_id": "2025-268L",
        "meta_epoch": "2025-12-20T04:00:00.999072",
        "meta_mean_motion": 15.53655845,
        "meta_eccentricity": 0.0001448,
        "meta_inclination": 43.0006,
        "meta_ra_of_asc_node": 77.7067,
        "meta_arg_of_pericenter": 271.1524,
        "meta_mean_anomaly": 318.6359,
        "meta_ephemeris_type": 0,
        "meta_classification_type": "U",
        "meta_norad_cat_id": 66567,
        "meta_element_set_no": 999,
        "meta_rev_at_epoch": 586,
        "meta_bstar": 0.039317,
        "meta_mean_motion_dot": 0.02903395,
        "meta_mean_motion_ddot": 0,
        "tle_line1": "1 66567U 25268L   25354.16667823  .02903395  00000+0  39317-1 0  9995",
        "tle_line2": "2 66567  43.0006  77.7067 0001448 271.1524 318.6359 15.53655845  5869"
      },
      "geometry": {
        "type": "Point",
        "coordinates": [
          -102.34573335418555,
          -1.6657644665086453
        ]
      }
    },
    {
      "type": "Feature",
      "properties": {
        "norad_id": 66568,
        "name": "STARLINK-35803",
        "group": "last-30-days",
        "lat": 2.3454862462699415,
        "lon": -106.63891813175367,
        "alt_km": 413.6494134631148,
        "timestamp": "2025-12-20T11:30:27.103441+00:00",
        "meta_object_name": "STARLINK-35803",
        "meta_object_id": "2025-268M",
        "meta_epoch": "2025-12-19T13:06:40.927392",
        "meta_mean_motion": 15.50770242,
        "meta_eccentricity": 7.69e-05,
        "meta_inclination": 43.0025,
        "meta_ra_of_asc_node": 81.3422,
        "meta_arg_of_pericenter": 350.7956,
        "meta_mean_anomaly": 9.289,
        "meta_ephemeris_type": 0,
        "meta_classification_type": "U",
        "meta_norad_cat_id": 66568,
        "meta_element_set_no": 999,
        "meta_rev_at_epoch": 568,
        "meta_bstar": 0.0024142,
        "meta_mean_motion_dot": 0.00144926,
        "meta_mean_motion_ddot": 0,
        "tle_line1": "1 66568U 25268M   25353.54630703  .00144926  00000+0  24142-2 0  9990",
        "tle_line2": "2 66568  43.0025  81.3422 0000769 350.7956   9.2890 15.50770242  5684"
      },
      "geometry": {
        "type": "Point",
        "coordinates": [
          -106.63891813175367,
          2.3454862462699415
        ]
      }
    },
    {
      "type": "Feature",
      "properties": {
        "norad_id": 66569,
        "name": "STARLINK-35835",
        "group": "last-30-days",
        "lat": -0.7095701719632416,
        "lon": -103.370118406124,
        "alt_km": 408.96742321610964,
        "timestamp": "2025-12-20T11:30:27.103453+00:00",
        "meta_object_name": "STARLINK-35835",
        "meta_object_id": "2025-268N",
        "meta_epoch": "2025-12-19T14:38:53.453760",
        "meta_mean_motion": 15.51068809,
        "meta_eccentricity": 0.000157,
        "meta_inclination": 43.0021,
        "meta_ra_of_asc_node": 80.9616,
        "meta_arg_of_pericenter": 180.5459,
        "meta_mean_anomaly": 179.5399,
        "meta_ephemeris_type": 0,
        "meta_classification_type": "U",
        "meta_norad_cat_id": 66569,
        "meta_element_set_no": 999,
        "meta_rev_at_epoch": 569,
        "meta_bstar": 0.01158,
        "meta_mean_motion_dot": 0.0075028,
        "meta_mean_motion_ddot": 0,
        "tle_line1": "1 66569U 25268N   25353.61034090  .00750280  00000+0  11580-1 0  9993",
        "tle_line2": "2 66569  43.0021  80.9616 0001570 180.5459 179.5399 15.51068809  5695"
      },
      "geometry": {
        "type": "Point",
        "coordinates": [
          -103.370118406124,
          -0.7095701719632416
        ]
      }
    },
    {
      "type": "Feature",
      "properties": {
        "norad_id": 66570,
        "name": "STARLINK-35834",
        "group": "last-30-days",
        "lat": -1.622409353237949,
        "lon": -102.39431908245854,
        "alt_km": 411.0518771984662,
        "timestamp": "2025-12-20T11:30:27.103464+00:00",
        "meta_object_name": "STARLINK-35834",
        "meta_object_id": "2025-268P",
        "meta_epoch": "2025-12-19T14:38:22.069824",
        "meta_mean_motion": 15.5108495,
        "meta_eccentricity": 0.0001238,
        "meta_inclination": 43.0034,
        "meta_ra_of_asc_node": 80.9577,
        "meta_arg_of_pericenter": 245.0703,
        "meta_mean_anomaly": 115.0029,
        "meta_ephemeris_type": 0,
        "meta_classification_type": "U",
        "meta_norad_cat_id": 66570,
        "meta_element_set_no": 999,
        "meta_rev_at_epoch": 569,
        "meta_bstar": 0.0072465,
        "meta_mean_motion_dot": 0.00458871,
        "meta_mean_motion_ddot": 0,
        "tle_line1": "1 66570U 25268P   25353.60997766  .00458871  00000+0  72465-2 0  9993",
        "tle_line2": "2 66570  43.0034  80.9577 0001238 245.0703 115.0029 15.51084950  5697"
      },
      "geometry": {
        "type": "Point",
        "coordinates": [
          -102.39431908245854,
          -1.622409353237949
        ]
      }
    },
    {
      "type": "Feature",
      "properties": {
        "norad_id": 66571,
        "name": "STARLINK-35836",
        "group": "last-30-days",
        "lat": -6.930664263781273,
        "lon": -96.66068789285035,
        "alt_km": 401.2659123641961,
        "timestamp": "2025-12-20T11:30:27.103474+00:00",
        "meta_object_name": "STARLINK-35836",
        "meta_object_id": "2025-268Q",
        "meta_epoch": "2025-12-20T04:00:00.999072",
        "meta_mean_motion": 15.53825771,
        "meta_eccentricity": 0.0001505,
        "meta_inclination": 43.0008,
        "meta_ra_of_asc_node": 77.6852,
        "meta_arg_of_pericenter": 252.7051,
        "meta_mean_anomaly": 344.7081,
        "meta_ephemeris_type": 0,
        "meta_classification_type": "U",
        "meta_norad_cat_id": 66571,
        "meta_element_set_no": 999,
        "meta_rev_at_epoch": 586,
        "meta_bstar": 0.036374,
        "meta_mean_motion_dot": 0.02738414,
        "meta_mean_motion_ddot": 0,
        "tle_line1": "1 66571U 25268Q   25354.16667823  .02738414  00000+0  36374-1 0  9998",
        "tle_line2": "2 66571  43.0008  77.6852 0001505 252.7051 344.7081 15.53825771  5860"
      },
      "geometry": {
        "type": "Point",
        "coordinates": [
          -96.66068789285035,
          -6.930664263781273
        ]
      }
    },
    {
      "type": "Feature",
      "properties": {
        "norad_id": 66572,
        "name": "STARLINK-35870",
        "group": "last-30-days",
        "lat": -3.320981857443459,
        "lon": -100.57154208332744,
        "alt_km": 413.15198968396726,
        "timestamp": "2025-12-20T11:30:27.103485+00:00",
        "meta_object_name": "STARLINK-35870",
        "meta_object_id": "2025-268R",
        "meta_epoch": "2025-12-19T14:37:25.234176",
        "meta_mean_motion": 15.50965919,
        "meta_eccentricity": 0.0004838,
        "meta_inclination": 42.9991,
        "meta_ra_of_asc_node": 80.9528,
        "meta_arg_of_pericenter": 97.5171,
        "meta_mean_anomaly": 262.6239,
        "meta_ephemeris_type": 0,
        "meta_classification_type": "U",
        "meta_norad_cat_id": 66572,
        "meta_element_set_no": 999,
        "meta_rev_at_epoch": 569,
        "meta_bstar": 0.0015119,
        "meta_mean_motion_dot": 0.00090663,
        "meta_mean_motion_ddot": 0,
        "tle_line1": "1 66572U 25268R   25353.60931984  .00090663  00000+0  15119-2 0  9999",
        "tle_line2": "2 66572  42.9991  80.9528 0004838  97.5171 262.6239 15.50965919  5697"
      },
      "geometry": {
        "type": "Point",
        "coordinates": [
          -100.57154208332744,
          -3.320981857443459
        ]
      }
    },
    {
      "type": "Feature",
      "properties": {
        "norad_id": 66573,
        "name": "STARLINK-35650",
        "group": "last-30-days",
        "lat": -4.896829243740839,
        "lon": -98.87188021158046,
        "alt_km": 412.1800627045486,
        "timestamp": "2025-12-20T11:30:27.103495+00:00",
        "meta_object_name": "STARLINK-35650",
        "meta_object_id": "2025-268S",
        "meta_epoch": "2025-12-19T14:36:55.904832",
        "meta_mean_motion": 15.50859773,
        "meta_eccentricity": 0.0003722,
        "meta_inclination": 43.0011,
        "meta_ra_of_asc_node": 80.9506,
        "meta_arg_of_pericenter": 102.75,
        "meta_mean_anomaly": 257.3776,
        "meta_ephemeris_type": 0,
        "meta_classification_type": "U",
        "meta_norad_cat_id": 66573,
        "meta_element_set_no": 999,
        "meta_rev_at_epoch": 569,
        "meta_bstar": 0.0063018,
        "meta_mean_motion_dot": 0.00392409,
        "meta_mean_motion_ddot": 0,
        "tle_line1": "1 66573U 25268S   25353.60898038  .00392409  00000+0  63018-2 0  9996",
        "tle_line2": "2 66573  43.0011  80.9506 0003722 102.7500 257.3776 15.50859773  5692"
      },
      "geometry": {
        "type": "Point",
        "coordinates": [
          -98.87188021158046,
          -4.896829243740839
        ]
      }
    }
  ]
}